NORAD_CAT_ID,OBJECT_NAME,OBJECT_TYPE,EPOCH,MEAN_MOTION,ECCENTRICITY,INCLINATION,RA_OF_ASC_NODE,ARG_OF_PERICENTER,MEAN_ANOMALY,BSTAR,MEAN_MOTION_DOT,MEAN_MOTION_DDOT,TLE_LINE0,TLE_LINE1,TLE_LINE2,SEMIMAJOR_AXIS,PERIOD,APOGEE,PERIGEE,DECAYED
49151.0,STARLINK-3102,PAYLOAD,2024-05-10 04:11:58,14.98338167,0.0003126,69.9988,140.0141,268.6606,91.4195,-2.0501e-05,-3.38e-06,0.0,0 STARLINK-3102,1 49151U 21082X   24131.17497854 -.00000338  00000-0 -20501-4 0  9997,2 49151  69.9988 140.0141 0003126 268.6606  91.4195 14.98338167148033,6950.168,96.106,574.205,569.86,0.0
49151.0,STARLINK-3102,PAYLOAD,2024-05-10 10:36:30,14.98338814,0.0003138,69.9988,139.3409,268.987,91.093,-9.7026e-06,-2.09e-06,0.0,0 STARLINK-3102,1 49151U 21082X   24131.44201649 -.00000209  00000-0 -97026-5 0  9996,2 49151  69.9988 139.3409 0003138 268.9870  91.0930 14.98338814148065,6950.166,96.106,574.212,569.85,0.0
49151.0,STARLINK-3102,PAYLOAD,2024-05-11 04:13:59,14.98330018,0.000316,69.9987,137.4895,268.4302,91.6495,2.0336e-05,1.5e-06,0.0,0 STARLINK-3102,1 49151U 21082X   24132.17638071  .00000150  00000-0  20336-4 0  9992,2 49151  69.9987 137.4895 0003160 268.4302  91.6495 14.98330018148185,6950.193,96.107,574.254,569.862,0.0
49151.0,STARLINK-3102,PAYLOAD,2024-05-11 10:38:30,14.98341474,0.0002995,69.9994,136.8177,266.3484,93.7333,0.00014875,1.683e-05,0.0,0 STARLINK-3102,1 49151U 21082X   24132.44341222  .00001683  00000-0  14875-3 0  9993,2 49151  69.9994 136.8177 0002995 266.3484  93.7333 14.98341474148229,6950.157,96.106,574.104,569.941,0.0
49151.0,STARLINK-3102,PAYLOAD,2024-05-11 17:03:02,14.9836792,0.0002424,70.0011,136.1409,282.7744,77.3144,-0.0006631,-8.003e-05,0.0,0 STARLINK-3102,1 49151U 21082X   24132.71045012 -.00008003  00000-0 -66310-3 0  9997,2 49151  70.0011 136.1409 0002424 282.7744  77.3144 14.98367920148267,6950.076,96.105,573.625,570.256,0.0
49151.0,STARLINK-3102,PAYLOAD,2024-05-12 04:16:01,14.98320656,0.0002892,69.9993,134.9662,267.5271,92.5557,-0.00011223,-1.431e-05,0.0,0 STARLINK-3102,1 49151U 21082X   24133.17779029 -.00001431  00000-0 -11223-3 0  9991,2 49151  69.9993 134.9662 0002892 267.5271  92.5557 14.98320656148335,6950.222,96.108,574.097,570.077,0.0
49151.0,STARLINK-3102,PAYLOAD,2024-05-12 10:40:33,14.98317925,0.0002912,69.9992,134.2928,268.3775,91.7051,-0.00013479,-1.7e-05,0.0,0 STARLINK-3102,1 49151U 21082X   24133.44483420 -.00001700  00000-0 -13479-3 0  9992,2 49151  69.9992 134.2928 0002912 268.3775  91.7051 14.98317925148361,6950.23,96.108,574.119,570.071,0.0
49151.0,STARLINK-3102,PAYLOAD,2024-05-12 17:05:05,14.98320122,0.0003024,69.9989,133.6185,271.566,88.5153,-7.5062e-05,-9.88e-06,0.0,0 STARLINK-3102,1 49151U 21082X   24133.71187281 -.00000988  00000-0 -75062-4 0  9992,2 49151  69.9989 133.6185 0003024 271.5660  88.5153 14.98320122148404,6950.223,96.108,574.19,569.987,0.0
49151.0,STARLINK-3102,PAYLOAD,2024-05-13 04:18:02,14.98323917,0.0002988,69.9988,132.4408,269.0506,91.031,-4.5943e-05,-6.41e-06,0.0,0 STARLINK-3102,1 49151U 21082X   24134.17919215 -.00000641  00000-0 -45943-4 0  9994,2 49151  69.9988 132.4408 0002988 269.0506  91.0310 14.98323917148484,6950.212,96.107,574.153,570.0,0.0
49151.0,STARLINK-3102,PAYLOAD,2024-05-13 09:06:26,14.98322477,0.000298,69.9988,131.9354,270.5758,89.5059,-5.3576e-05,-7.32e-06,0.0,0 STARLINK-3102,1 49151U 21082X   24134.37947443 -.00000732  00000-0 -53576-4 0  9992,2 49151  69.9988 131.9354 0002980 270.5758  89.5059 14.98322477148501,6950.216,96.107,574.152,570.01,0.0
49151.0,STARLINK-3102,PAYLOAD,2024-05-13 17:07:06,14.98329113,0.0003058,69.9988,131.0938,274.5242,85.5568,-9.4233e-05,-1.217e-05,0.0,0 STARLINK-3102,1 49151U 21082X   24134.71327259 -.00001217  00000-0 -94233-4 0  9991,2 49151  69.9988 131.0938 0003058 274.5242  85.5568 14.98329113148559,6950.196,96.107,574.186,569.935,0.0
49151.0,STARLINK-3102,PAYLOAD,2024-05-14 04:20:03,14.98319823,0.0003208,69.9984,129.9148,273.9751,86.1041,0.00015249,1.726e-05,0.0,0 STARLINK-3102,1 49151U 21082X   24135.18059463  .00001726  00000-0  15249-3 0  9994,2 49151  69.9984 129.9148 0003208 273.9751  86.1041 14.98319823148638,6950.224,96.108,574.319,569.86,0.0
49151.0,STARLINK-3102,PAYLOAD,2024-05-14 09:08:27,14.98322563,0.0003223,69.9984,129.4098,273.9643,86.1147,0.00015106,1.709e-05,0.0,0 STARLINK-3102,1 49151U 21082X   24135.38087407  .00001709  00000-0  15106-3 0  9998,2 49151  69.9984 129.4098 0003223 273.9643  86.1147 14.98322563148658,6950.216,96.107,574.321,569.841,0.0
49151.0,STARLINK-3102,PAYLOAD,2024-05-14 17:09:07,14.98326747,0.0003229,69.9984,128.5681,273.752,86.3269,0.00015833,1.796e-05,0.0,0 STARLINK-3102,1 49151U 21082X   24135.71467263  .00001796  00000-0  15833-3 0  9990,2 49151  69.9984 128.5681 0003229 273.7520  86.3269 14.98326747148705,6950.203,96.107,574.312,569.824,0.0
49151.0,STARLINK-3102,PAYLOAD,2024-05-15 04:22:03,14.98331182,0.0003248,69.9984,127.3898,273.7617,86.317,0.00015938,1.809e-05,0.0,0 STARLINK-3102,1 49151U 21082X   24136.18199039  .00001809  00000-0  15938-3 0  9996,2 49151  69.9984 127.3898 0003248 273.7617  86.3170 14.98331182148788,6950.189,96.107,574.312,569.797,0.0
49151.0,STARLINK-3102,PAYLOAD,2024-05-15 09:10:27,14.9833545,0.0003235,69.9984,126.8848,273.6119,86.467,0.0001762,2.01e-05,0.0,0 STARLINK-3102,1 49151U 21082X   24136.38226705  .00002010  00000-0  17620-3 0  9994,2 49151  69.9984 126.8848 0003235 273.6119  86.4670 14.98335450148800,6950.176,96.107,574.289,569.793,0.0
49151.0,STARLINK-3102,PAYLOAD,2024-05-16 04:24:04,14.98341198,0.0003241,69.9985,124.8648,273.4418,86.6371,0.00014583,1.648e-05,0.0,0 STARLINK-3102,1 49151U 21082X   24137.18338018  .00001648  00000-0  14583-3 0  9995,2 49151  69.9985 124.8648 0003241 273.4418  86.6371 14.98341198148934,6950.158,96.106,574.276,569.771,0.0
49151.0,STARLINK-3102,PAYLOAD,2024-05-16 09:12:27,14.98347223,0.0003211,69.9985,124.3597,273.2657,86.8135,0.00018356,2.099e-05,0.0,0 STARLINK-3102,1 49151U 21082X   24137.38365377  .00002099  00000-0  18356-3 0  9998,2 49151  69.9985 124.3597 0003211 273.2657  86.8135 14.98347223148959,6950.14,96.106,574.236,569.773,0.0
49151.0,STARLINK-3102,PAYLOAD,2024-05-17 04:26:04,14.98340029,0.0002913,70.0001,122.3413,267.036,93.0465,1.8502e-05,1.28e-06,0.0,0 STARLINK-3102,1 49151U 21082X   24138.18477606  .00000128  00000-0  18502-4 0  9991,2 49151  70.0001 122.3413 0002913 267.0360  93.0465 14.98340029149084,6950.162,96.106,574.051,570.002,0.0
49151.0,STARLINK-3102,PAYLOAD,2024-05-17 09:14:28,14.98339934,0.0002991,69.9998,121.8359,273.5288,86.5529,-4.801e-08,-9.4e-07,0.0,0 STARLINK-3102,1 49151U 21082X   24138.38505541 -.00000094  00000-0 -48010-7 0  9997,2 49151  69.9998 121.8359 0002991 273.5288  86.5529 14.98339934149100,6950.162,96.106,574.106,569.948,0.0
49151.0,STARLINK-3102,PAYLOAD,2024-05-17 15:39:01,14.98335383,0.0003123,69.9989,121.1609,275.1799,84.9004,-7.1766e-05,-9.49e-06,0.0,0 STARLINK-3102,1 49151U 21082X   24138.65209832 -.00000949  00000-0 -71766-4 0  9991,2 49151  69.9989 121.1609 0003123 275.1799  84.9004 14.98335383149142,6950.176,96.107,574.212,569.871,0.0
49151.0,STARLINK-3102,PAYLOAD,2024-05-18 04:28:05,14.98332513,0.0002919,69.9992,119.8154,270.9421,89.1403,-9.1882e-05,-1.189e-05,0.0,0 STARLINK-3102,1 49151U 21082X   24139.18617910 -.00001189  00000-0 -91882-4 0  9998,2 49151  69.9992 119.8154 0002919 270.9421  89.1403 14.98332513149234,6950.185,96.107,574.079,570.021,0.0
49151.0,STARLINK-3102,PAYLOAD,2024-05-18 09:16:29,14.98336127,0.0002912,69.9992,119.3107,271.017,89.0655,-8.2141e-05,-1.073e-05,0.0,0 STARLINK-3102,1 49151U 21082X   24139.38645583 -.00001073  00000-0 -82141-4 0  9997,2 49151  69.9992 119.3107 0002912 271.0170  89.0655 14.98336127149258,6950.174,96.107,574.063,570.015,0.0
49151.0,STARLINK-3102,PAYLOAD,2024-05-18 15:41:01,14.98336815,0.0002905,69.9993,118.6373,270.6669,89.4157,-0.0001022,-1.312e-05,0.0,0 STARLINK-3102,1 49151U 21082X   24139.65349441 -.00001312  00000-0 -10220-3 0  9995,2 49151  69.9993 118.6373 0002905 270.6669  89.4157 14.98336815149295,6950.172,96.107,574.056,570.018,0.0
49151.0,STARLINK-3102,PAYLOAD,2024-05-19 04:30:06,14.98333361,0.0002925,69.9991,117.291,267.4575,92.6249,-2.0017e-05,-3.32e-06,0.0,0 STARLINK-3102,1 49151U 21082X   24140.18757439 -.00000332  00000-0 -20017-4 0  9992,2 49151  69.9991 117.2910 0002925 267.4575  92.6249 14.98333361149388,6950.182,96.107,574.08,570.015,0.0
49151.0,STARLINK-3102,PAYLOAD,2024-05-19 07:42:22,14.98323217,0.0002919,69.9993,116.9543,261.4705,98.6123,0.0001654,1.881e-05,0.0,0 STARLINK-3102,1 49151U 21082X   24140.32109579  .00001881  00000-0  16540-3 0  9997,2 49151  69.9993 116.9543 0002919 261.4705  98.6123 14.98323217149397,6950.214,96.107,574.108,570.05,0.0
49151.0,STARLINK-3102,PAYLOAD,2024-05-20 04:32:07,14.9832705,0.0002808,69.9992,114.766,267.7532,92.3306,3.4713e-05,3.21e-06,0.0,0 STARLINK-3102,1 49151U 21082X   24141.18897775  .00000321  00000-0  34713-4 0  9995,2 49151  69.9992 114.7660 0002808 267.7532  92.3306 14.98327050149535,6950.202,96.107,574.019,570.115,0.0
49151.0,STARLINK-3102,PAYLOAD,2024-05-20 07:44:23,14.98328663,0.0002828,69.9991,114.4293,268.2091,91.8744,4.8954e-05,4.91e-06,0.0,0 STARLINK-3102,1 49151U 21082X   24141.32249649  .00000491  00000-0  48954-4 0  9992,2 49151  69.9991 114.4293 0002828 268.2091  91.8744 14.98328663149543,6950.197,96.107,574.028,570.097,0.0
49151.0,STARLINK-3102,PAYLOAD,2024-05-21 04:34:08,14.98326003,0.0002802,69.9991,112.2407,266.6493,93.4346,-8.7101e-06,-1.97e-06,0.0,0 STARLINK-3102,1 49151U 21082X   24142.19038089 -.00000197  00000-0 -87101-5 0  9995,2 49151  69.9991 112.2407 0002802 266.6493  93.4346 14.98326003149683,6950.205,96.107,574.018,570.123,0.0
49151.0,STARLINK-3102,PAYLOAD,2024-05-21 07:46:24,14.98328924,0.0002767,69.9992,111.9041,266.2642,93.8201,2.5278e-05,2.09e-06,0.0,0 STARLINK-3102,1 49151U 21082X   24142.32389823  .00000209  00000-0  25278-4 0  9993,2 49151  69.9992 111.9041 0002767 266.2642  93.8201 14.98328924149695,6950.196,96.107,573.984,570.138,0.0
